store,address,phone,address2,geocoding,x,y,note
학동역 DT점,서울시 강남구 학동로 211 1층  ,02-3444-9973,서울특별시 강남구 학동로 211 1층,서울특별시 강남구 학동로 211 1층,127.03205587528586,37.51468091909501,
수서점,서울시 강남구 광평로 280 수서동 724호  ,02-3412-2326,서울특별시 강남구 광평로 280 수서동 724호,서울특별시 강남구 광평로 280 수서동 724호,127.10310898061113,37.487321775278595,
차병원점,서울시 강남구 논현로 566 강남차병원1층  ,02-538-7615,서울특별시 강남구 논현로 566 강남차병원1층,서울특별시 강남구 논현로 566 강남차병원1층,127.03472177313644,37.50703964801002,
강남대로점,서울시 서초구 강남대로 369 1층  ,02-588-5778,서울특별시 서초구 강남대로 369 1층,서울특별시 서초구 강남대로 369 1층,127.02821422459546,37.49565266712542,
메가박스점,서울 강남구 삼성동 159 코엑스몰 지하2층  ,02-6002-3320,서울특별시 강남구 삼성동 159 코엑스몰 지하2층,서울특별시 강남구 삼성동 159 코엑스몰 지하2층,127.05915520480393,37.51183229337543,
압구정에스점,서울시 강남구 압구정로 46길 3  ,02-541-5832,서울특별시 강남구 압구정로 46길 3,서울특별시 강남구 압구정로 46길 3,127.03692638929549,37.52829364903839,
강남에스점,서울시 서초구 서초 1306-3호  ,02-593-5095,서울특별시 서초구 서초 1306-3호,서울특별시 서초구 서초 1306-3호,127.025807158553,37.500311420613514,
청담에스점,서울시 강남구 압구정로 461 네이처포엠빌딩B108&109호  ,02-548-6052,서울특별시 강남구 압구정로 461 네이처포엠빌딩B108&109호,서울특별시 강남구 압구정로 461 네이처포엠빌딩B108&109호,127.04723082641128,37.52525360108726,
신사점,서울시 강남구 도산대로 126  ,02-548-2741,서울특별시 강남구 도산대로 126,서울특별시 강남구 도산대로 126,127.02240812380236,37.516962682729655,
압구정역점,서울시 강남구 논현로 842 압구정빌딩1층  ,02-544-6823,서울특별시 강남구 논현로 842 압구정빌딩1층,서울특별시 강남구 논현로 842 압구정빌딩1층,127.02873397573872,37.524034186469756,
역삼점,서울시 강남구 논현로 512  지상1&2층  ,02-569-8051,서울특별시 강남구 논현로 512 지상1&2층,서울특별시 강남구 논현로 512 지상1&2층,127.03651778007055,37.50234486850842,
양재스포타임점,서울시 서초구 강남대로 213 24호 지하1층  ,02-578-6833,서울특별시 서초구 강남대로 213 24호 지하1층,서울특별시 서초구 강남대로 213 24호 지하1층,127.03494797113268,37.48276645646076,
청담성당점,서울시 강남구 삼성로 716 LEE76빌딩2층  ,02-542-2053,서울특별시 강남구 삼성로 716 LEE76빌딩2층,서울특별시 강남구 삼성로 716 LEE76빌딩2층,127.05003282510057,37.51990950199928,
영동점,서울 서초구 반포동 736-17 P빌딩 2층  ,02-3443-2096,서울특별시 서초구 반포동 736-17 P빌딩 2층,서울특별시 서초구 반포동 736-17 P빌딩 2층,127.0228235715594,37.50685333509015,
도곡점,서울시 강남구 언주로 30길 10&112 현대비젼21 112호  ,02-572-2781,서울특별시 강남구 언주로 30길 10&112 현대비젼21 112호,서울특별시 강남구 언주로 30길 10&112 현대비젼21 112호,127.0513227305754,37.4873646307762,
영동고앞점,서울시 강남구 선릉로 749 1&2층  ,02-544-3794,서울특별시 강남구 선릉로 749 1&2층,서울특별시 강남구 선릉로 749 1&2층,127.03947957530714,37.52145421594632,
공항터미널앞점,서울시 강남구 테헤란로 87길 17 1층  ,02-539-5174,서울특별시 강남구 테헤란로 87길 17 1층,서울특별시 강남구 테헤란로 87길 17 1층,127.05834973642901,37.50874224881559,
교대점,서울시 서초구 서초중앙로 118  1층  ,02-585-3981,서울특별시 서초구 서초중앙로 118 1층,서울특별시 서초구 서초중앙로 118 1층,127.01423653928912,37.49239353299309,
대치한티점,서울시 강남구 선릉로 64길 23 1층  ,02-557-0510,서울특별시 강남구 선릉로 64길 23 1층,서울특별시 강남구 선릉로 64길 23 1층,127.05416869965559,37.49830158660618,
압구정시티점,서울시 강남구 도산대로49길 13 1층 17&18호  ,02-543-5922,서울특별시 강남구 도산대로49길 13 1층 17&18호,서울특별시 강남구 도산대로49길 13 1층 17&18호,127.03695808423035,37.5237435785289,
압구정로데오점,서울시 강남구 선릉로 157길 12 석전빌딩 1~4층  ,02-3445-5093,서울특별시 강남구 선릉로 157길 12 석전빌딩 1~4층,서울특별시 강남구 선릉로 157길 12 석전빌딩 1~4층,127.03900689288007,37.526121565606985,
서초우성점,서울시 서초구 강남대로 51길 1 511 TOWER  1층  ,02-582-0158,서울특별시 서초구 강남대로 51길 1 511 TOWER 1층,서울특별시 서초구 강남대로 51길 1 511 TOWER 1층,127.03025926478905,37.49128227662222,
논현팍스타워점,서울시 강남구 논현 231-13호 팍스타워지하1층  ,02-513-3870,서울특별시 강남구 논현 231-13호 팍스타워지하1층,서울특별시 강남구 논현 231-13호 팍스타워지하1층,127.03667982646452,37.50994029161989,
삼성오크우드점,서울 강남구 영동대로 513 컨벤션별관A동 지하 2층  ,02-3466-8507,서울특별시 강남구 영동대로 513 컨벤션별관A동 지하 2층,서울특별시 강남구 영동대로 513 컨벤션별관A동 지하 2층,127.05915520480393,37.51183229337543,
트레이드타워점,서울시 강남구 영동대로 511 트레이드타워 지하1층  ,02-6002-6470,서울특별시 강남구 영동대로 511 트레이드타워 지하1층,서울특별시 강남구 영동대로 511 트레이드타워 지하1층,127.06103158462088,37.51035369172277,
삼성봉은사거리점,서울시 강남구 영동대로 607 12번지 1&2층  ,02-3443-5618,서울특별시 강남구 영동대로 607 12번지 1&2층,서울특별시 강남구 영동대로 607 12번지 1&2층,127.05948536869255,37.51454414955278,
대치포스코뒷점,서울시 강남구 삼성로 85길 11 롯데캐슬아파트생활편익시설동  ,02-3453-8077,서울특별시 강남구 삼성로 85길 11 롯데캐슬아파트생활편익시설동,서울특별시 강남구 삼성로 85길 11 롯데캐슬아파트생활편익시설동,127.05618636748265,37.504598674685916,
반포엘루체점,서울시 서초구 신반포로 23 1141호 엘루체백화점내1층1013~1015호  ,02-3477-5571,서울특별시 서초구 신반포로 23 1141호 엘루체백화점내1층1013~1015호,서울특별시 서초구 신반포로 23 1141호 엘루체백화점내1층1013~1015호,126.98723188444377,37.50174614899513,
잠실신천점,서울시 송파구 석촌호수로 118 1층  ,02-416-9520,서울특별시 송파구 석촌호수로 118 1층,서울특별시 송파구 석촌호수로 118 1층,127.09001694480418,37.50743392470356,
서초지파이브점,서울시 서초구 서초동 1685-8호 101~2호&113~4호&121호  ,02-3477-5580,서울특별시 서초구 서초동 1685-8호 101~2호&113~4호&121호,서울특별시 서초구 서초동 1685-8호 101~2호&113~4호&121호,127.01639699176965,37.495411626507234,
논현동수면센터점,서울시 강남구 논현로 717 1층  ,02-3443-5575,서울특별시 강남구 논현로 717 1층,서울특별시 강남구 논현로 717 1층,127.0295339873507,37.515961001918875,
삼성전자강남사옥점,서울시 서초구 서초대로74길 11 지하2층  ,02-2055-1142,서울특별시 서초구 서초대로74길 11 지하2층,서울특별시 서초구 서초대로74길 11 지하2층,127.02691412193253,37.496635067760415,
삼성생명강남사옥점,서울시 서초구 서초대로74길 4 삼성생명보험서초타워내지하1층  ,02-581-5562,서울특별시 서초구 서초대로74길 4 삼성생명보험서초타워내지하1층,서울특별시 서초구 서초대로74길 4 삼성생명보험서초타워내지하1층,127.02570415446293,37.496743458014684,
방배카페골목점,서울특별시 서초구 방배중앙로 187  ,02-592-7794,서울특별시 서초구 방배중앙로 187,서울특별시 서초구 방배중앙로 187,126.98553666503179,37.49570921130823,
역삼포스틸타워뒷점,서울시 강남구 테헤란로 20길 10 쓰리엠타워1층  ,02-554-9962,서울특별시 강남구 테헤란로 20길 10 쓰리엠타워1층,서울특별시 강남구 테헤란로 20길 10 쓰리엠타워1층,127.03414133908974,37.499083937609136,
테헤란로하이닉스뒷점,서울시 강남구 테헤란로 70길 12 1층  ,02-538-9927,서울특별시 강남구 테헤란로 70길 12 1층,서울특별시 강남구 테헤란로 70길 12 1층,127.05315548330184,37.50474423826474,
방배역점,서울시 서초구 효령로 117  3&4층  ,02-521-4562,서울특별시 서초구 효령로 117 3&4층,서울특별시 서초구 효령로 117 3&4층,126.99694733461315,37.48146512279432,
삼성봉은사로점,서울시 강남구 봉은사로 628 엘슨빌딩1층  ,02-538-4523,서울특별시 강남구 봉은사로 628 엘슨빌딩1층,서울특별시 강남구 봉은사로 628 엘슨빌딩1층,127.06416829262966,37.51466783885848,
방이점,서울시 송파구 오금로 11길 7  ,02-415-5561,서울특별시 송파구 오금로 11길 7,서울특별시 송파구 오금로 11길 7,127.10796498650932,37.51455483575742,
매봉역점,서울시 강남구 논현로 38길 42 418호  ,02-529-9947,서울특별시 강남구 논현로 38길 42 418호,서울특별시 강남구 논현로 38길 42 418호,127.04505754616952,37.485574180084974,
남부터미널역점,서울시 서초구 서초중앙로 43 로얄타워1층  ,02-523-3671,서울특별시 서초구 서초중앙로 43 로얄타워1층,서울특별시 서초구 서초중앙로 43 로얄타워1층,127.01558074506273,37.4855366939717,
강남역랭기지타워점,서울시 강남구 테헤란로4길 28 826-28호 1층  ,02-563-3655,서울특별시 강남구 테헤란로4길 28 826-28호 1층,서울특별시 강남구 테헤란로4길 28 826-28호 1층,127.03009175390997,37.49652618029511,
도심공항타워점,서울시 강남구 테헤란로87길 36 공항타워 1층  ,02-2016-5330,서울특별시 강남구 테헤란로87길 36 공항타워 1층,서울특별시 강남구 테헤란로87길 36 공항타워 1층,127.05859973169561,37.51023779261574,
청담카페점,서울시 강남구 도산대로 67길 7&파크빌딩 1층  ,02-514-5622,서울특별시 강남구 도산대로 67길 7&파크빌딩 1층,서울특별시 강남구 도산대로 67길 7&파크빌딩 1층,127.04439086745903,37.52448885074072,
동부이촌동점,서울시 용산구 이촌로 303 현대아파트상가11동102호  ,02-792-3677,서울특별시 용산구 이촌로 303 현대아파트상가11동102호,서울특별시 용산구 이촌로 303 현대아파트상가11동102호,126.9811545158088,37.518909472168424,
광화문점,서울 종로구 서린동 136 센트리얼빌딩 1층  ,02-3210-2326,서울특별시 종로구 서린동 136 센트리얼빌딩 1층,서울특별시 종로구 서린동 136 센트리얼빌딩 1층,126.9788551562598,37.56981554477425,
대학로점,서울시 종로구 대학로 10길 5 1-60호  ,02-762-3146,서울특별시 종로구 대학로 10길 5 1-60호,서울특별시 종로구 대학로 10길 5 1-60호,127.00258126402511,37.58186370694923,
경희궁의아침점,서울시 종로구 새문안로3길 23 경희궁아침상가4단지105외  ,02-730-8896,서울특별시 종로구 새문안로3길 23 경희궁아침상가4단지105외,서울특별시 종로구 새문안로3길 23 경희궁아침상가4단지105외,126.97223220688201,37.57260725792388,
홍대역점,서울시 마포구 홍익로 6길 26  ,02-333-4278,서울특별시 마포구 홍익로 6길 26,서울특별시 마포구 홍익로 6길 26,126.9232684487891,37.55546666063922,
종로관철동점,서울시 종로구 청계천로 83 11-4호 지하1&지상1~3층  ,02-738-5333,서울특별시 종로구 청계천로 83 11-4호 지하1&지상1~3층,서울특별시 종로구 청계천로 83 11-4호 지하1&지상1~3층,126.98673377112543,37.56848321959446,
소공동삼화빌딩점,서울 중구 남대문로7길 16 한컴빌딩 1층  ,02-753-8004,서울특별시 중구 남대문로7길 16 한컴빌딩 1층,서울특별시 중구 남대문로7길 16 한컴빌딩 1층,126.98116575849872,37.564166691924605,
강변테크노마트점,서울시 광진구 광나루로56길 85 테크노마트9층35호  ,02-3424-5480,서울특별시 광진구 광나루로56길 85 테크노마트9층35호,서울특별시 광진구 광나루로56길 85 테크노마트9층35호,127.09569679572392,37.53572093827582,
외대앞점,서울시 동대문구 이문로 106 1~3층  ,02-959-7750,서울특별시 동대문구 이문로 106 1~3층,서울특별시 동대문구 이문로 106 1~3층,127.06021828945507,37.59606603536706,
고대안암역점,서울시 성북구 개운사길8 101-3 1층  ,02-953-6652,서울특별시 성북구 개운사길8 101-3 1층,서울특별시 성북구 개운사길8 101-3 1층,127.02957334916114,37.58698668189114,
순화동라마다호텔점,서울시 중구 칠패로 27 151호  ,02-3789-3347,서울특별시 중구 칠패로 27 151호,서울특별시 중구 칠패로 27 151호,126.97204438137813,37.56026356926629,
왕십리민자역사점,서울시 성동구 왕십리 광장로 17 왕십리민자역사ENTER6내1층  ,02-2200-6120,서울특별시 성동구 왕십리 광장로 17 왕십리민자역사ENTER6내1층,서울특별시 성동구 왕십리 광장로 17 왕십리민자역사ENTER6내1층,127.03839147760182,37.56144094285114,
신촌역앞점,서울시 서대문구 신촌역로 20  27-27&16&65&61호  ,02-312-5568,서울특별시 서대문구 신촌역로 20 27-27&16&65&61호,서울특별시 서대문구 신촌역로 20 27-27&16&65&61호,126.94313949293273,37.55836109347611,
세종문화회관옆점,서울 종로구 새문안로 9길 25 1층  ,02-720-5561,서울특별시 종로구 새문안로 9길 25 1층,서울특별시 종로구 새문안로 9길 25 1층,126.97548144059087,37.57134658433717,
신촌점,서울시 서대문구 창천 18-26호 B1  ,02-363-5572,서울특별시 서대문구 창천 18-26호 B1,서울특별시 서대문구 창천 18-26호 B1,126.93730121458397,37.55633990373911,
건대스타시티점,서울시 광진구 자양동 227-342호 롯데백화점 옆 더클래식500건물 1층  ,02-444-9861,서울특별시 광진구 자양동 227-342호 롯데백화점 옆 더클래식500건물 1층,서울특별시 광진구 자양동 227-342호 롯데백화점 옆 더클래식500건물 1층,127.07121565838261,37.538999859786955,
하나은행경복궁역점,서울시 종로구 사직로 130&1 현대적선빌딩1층  ,02-733-5108,서울특별시 종로구 사직로 130&1 현대적선빌딩1층,서울특별시 종로구 사직로 130&1 현대적선빌딩1층,126.97332925694258,37.57536455490468,
중계동은행사거리점,서울시 노원구 한글비석로 263 1층  ,02-931-3055,서울특별시 노원구 한글비석로 263 1층,서울특별시 노원구 한글비석로 263 1층,127.0764786717217,37.65121504359602,
서울스퀘어점,서울시 중구 한강대로 416 지하1층  ,02-6456-8907,서울특별시 중구 한강대로 416 지하1층,서울특별시 중구 한강대로 416 지하1층,126.97375507748575,37.55550669645782,
목동점,서울시 양천구 목동동로 293 현대41타워1층  ,02-2654-5981,서울특별시 양천구 목동동로 293 현대41타워1층,서울특별시 양천구 목동동로 293 현대41타워1층,126.87576961080605,37.52818002332732,
여의도34번지점,서울 영등포구 국제금융로 52 심팩빌딩 1층  ,02-783-2043,서울특별시 영등포구 국제금융로 52 심팩빌딩 1층,서울특별시 영등포구 국제금융로 52 심팩빌딩 1층,126.92951249127071,37.52272821447928,
여의도교보증권점,서울시 영등포구 의사당대로 97 26-4 교보증권빌딩1층  ,02-783-6058,서울특별시 영등포구 의사당대로 97 26-4 교보증권빌딩1층,서울특별시 영등포구 의사당대로 97 26-4 교보증권빌딩1층,126.92459182256933,37.52250893470141,
시흥홈플러스점,서울시 금천구 시흥대로 201 1층  ,02-803-9994,서울특별시 금천구 시흥대로 201 1층,서울특별시 금천구 시흥대로 201 1층,126.90079353610369,37.45190639716076,
여의도순복음교회옆점,서울시 영등포구 여의서로 43 한서리버파크2층  ,02-780-7758,서울특별시 영등포구 여의서로 43 한서리버파크2층,서울특별시 영등포구 여의서로 43 한서리버파크2층,126.92475312787258,37.530852314647326,
부산광복동점,부산광역시 중구 창선동 2가 8-2  ,051-243-9105,부산광역시 중구 창선동 2가 8-2,부산광역시 중구 창선동 2가 8-2,129.02899465687494,35.09946710756965,
인천구월동점,인천광역시 남동구 예술로 138 지상1&2층  ,032-421-3418,인천광역시 남동구 예술로 138 지상1&2층,인천광역시 남동구 예술로 138 지상1&2층,126.7010247565225,37.446217869354214,
대전탄방동점,대전시 서구 문정로76 1층  ,042-471-9805,대전광역시 서구 문정로76 1층,대전광역시 서구 문정로76 1층,127.38768864421563,36.346420316536154,
일산라페스타점,경기도 고양시 일산동구 장항동 764 라페스타C동  ,031-907-2326,경기도 고양시 일산동구 장항동 764 라페스타C동,경기도 고양시 일산동구 장항동 764 라페스타C동,126.76879902203348,37.66132049073023,
일산웨스턴돔1호점,경기도 고양시 일산동구 정발산로 24 I동103~203호  ,031-931-5573,경기도 고양시 일산동구 정발산로 24 I동103~203호,경기도 고양시 일산동구 정발산로 24 I동103~203호,126.77204559610539,37.65590290964603,
분당서현점,경기도 성남시 분당구 분당로53번길 11 1층2&3호  ,031-705-8926,경기도 성남시 분당구 분당로53번길 11 1층2&3호,경기도 성남시 분당구 분당로53번길 11 1층2&3호,127.12155327240347,37.38406589180886,
분당플라자점,경기도 성남시 분당구 황새울로 326 서현빌딩상가내2층  ,031-705-3188,경기도 성남시 분당구 황새울로 326 서현빌딩상가내2층,경기도 성남시 분당구 황새울로 326 서현빌딩상가내2층,127.12185986355266,37.385128783684515,
분당수내점,경기도 성남시 분당구 황새울로 214번길8 MSPlaza내1층  ,031-713-9937,경기도 성남시 분당구 황새울로 214번길8 MSPlaza내1층,경기도 성남시 분당구 황새울로 214번길8 MSPlaza내1층,127.11231924343562,37.37812826513331,
동탄라마다호텔점,경기도 화성시 노작로 199 동탄라마다호텔107호~111호  ,031-8003-8374,경기도 화성시 노작로 199 동탄라마다호텔107호~111호,경기도 화성시 노작로 199 동탄라마다호텔107호~111호,127.07467514709653,37.20583456632617,
일산킨텍스현대백화점점,경기도 고양시 일산서구 대화동 2602 현대백화점킨텍스점 5F  ,031-822-3575,경기도 고양시 일산서구 대화동 2602 현대백화점킨텍스점 5F,경기도 고양시 일산서구 대화동 2602 현대백화점킨텍스점 5F,126.75164072854419,37.66799790391858,
창원상남동점,경남 창원시 성산구 중앙대로 104 마이우스오피스텔 123호 207호  ,055-211-0737,경상남도 창원시 성산구 중앙대로 104 마이우스오피스텔 123호 207호,경상남도 창원시 성산구 중앙대로 104 마이우스오피스텔 123호 207호,128.68081963892718,35.22348746655865,
청주점,충북 청주시 상당구 상당로69번길20 2~4층  ,043-221-2373,충청북도 청주시 상당구 상당로69번길20 2~4층,충청북도 청주시 상당구 상당로69번길20 2~4층,127.48929860792354,36.63453263673838,
청주지웰시티점,충북 청주시 흥덕구 대농로 17 지웰시티몰 1층 124-1&125&126호  ,043-238-3151,충청북도 청주시 흥덕구 대농로 17 지웰시티몰 1층 124-1&125&126호,충청북도 청주시 흥덕구 대농로 17 지웰시티몰 1층 124-1&125&126호,127.42510834814291,36.64274496438909,
무교CBTL점,서울 중구 세종대로 136 파이낸스빌딩  ,070-4140-7003,서울특별시 중구 세종대로 136 파이낸스빌딩,서울특별시 중구 세종대로 136 파이낸스빌딩,126.97825562828291,37.56841889278973,
국기원사거리점,서울시 강남구 테헤란로 8길 42 1층  ,02-552-7106 ,서울특별시 강남구 테헤란로 8길 42 1층,서울특별시 강남구 테헤란로 8길 42 1층,127.0321610355201,37.49614721229232,
남대문점,서울시 중구 후암로110 581호 서울시티타워1층  ,02-777-4217,서울특별시 중구 후암로110 581호 서울시티타워1층,서울특별시 중구 후암로110 581호 서울시티타워1층,126.97404974707779,37.55429942466452,
올림픽플라자,서울시 송파구 양재대로 1222 올림픽선수A 1층212~3호  ,02-402-3571,서울특별시 송파구 양재대로 1222 올림픽선수A 1층212~3호,서울특별시 송파구 양재대로 1222 올림픽선수A 1층212~3호,127.13106441277795,37.515729797198276,
대학로마로니에점,서울시 종로구 대학로 12길 62 지하1층&지상1&2층  ,02-742-3318,서울특별시 종로구 대학로 12길 62 지하1층&지상1&2층,서울특별시 종로구 대학로 12길 62 지하1층&지상1&2층,127.00371337454496,37.58140417000913,
여의도역점,서울시 영등포구 의사당대로 108 아일렉스상가 1층 101호  ,02-784-5531,서울특별시 영등포구 의사당대로 108 아일렉스상가 1층 101호,서울특별시 영등포구 의사당대로 108 아일렉스상가 1층 101호,126.92399378530808,37.521012887058596,
인사점,서울시 종로구 낙원동 272 오라카이스위츠 1층  ,02-6262-8100,서울특별시 종로구 낙원동 272 오라카이스위츠 1층,서울특별시 종로구 낙원동 272 오라카이스위츠 1층,126.98734425148416,37.572988263118646,
테헤란로비젼타워점,서울시 강남구 테헤란로 312 707-2번지1층  ,02-558-7101,서울특별시 강남구 테헤란로 312 707-2번지1층,서울특별시 강남구 테헤란로 312 707-2번지1층,127.04504535910527,37.50293658829913,
서울대입구역점,서울시 관악구 관악로 161 층일부 2&3층  ,02-882-3101,서울특별시 관악구 관악로 161 층일부 2&3층,서울특별시 관악구 관악로 161 층일부 2&3층,126.95217609372224,37.47960841508025,
코엑스인터점,서울시 강남구 봉은사로 524 코엑스 인터컨티넨탈아케이드  ,02-569-3103,서울특별시 강남구 봉은사로 524 코엑스 인터컨티넨탈아케이드,서울특별시 강남구 봉은사로 524 코엑스 인터컨티넨탈아케이드,127.05712012278579,37.51295054012817,
수유역점,서울시 강북구 도봉로 352 효성네오인텔리안 101호  ,02-906-5571,서울특별시 강북구 도봉로 352 효성네오인텔리안 101호,서울특별시 강북구 도봉로 352 효성네오인텔리안 101호,127.02704458726245,37.63867701799202,
뉴압구정점,서울시 강남구 논현로 167길 9 낙산프라자 1층  ,02-545-3181,서울특별시 강남구 논현로 167길 9 낙산프라자 1층,서울특별시 강남구 논현로 167길 9 낙산프라자 1층,127.02742185737517,37.52442192943384,
디큐브시티점,서울시 구로구 경인로 662 디큐브시티 4층  ,02-2210-9484,서울특별시 구로구 경인로 662 디큐브시티 4층,서울특별시 구로구 경인로 662 디큐브시티 4층,126.88822144322839,37.50811812022276,
삼청동점,서울시 종로구 삼청로 109  ,02-730-5177,서울특별시 종로구 삼청로 109,서울특별시 종로구 삼청로 109,126.98177185613636,37.58513293362301,
충무로극동빌딩점,서울시 중구 퇴계로 173 남산스퀘어 1층  ,02-2273-3181,서울특별시 중구 퇴계로 173 남산스퀘어 1층,서울특별시 중구 퇴계로 173 남산스퀘어 1층,126.99105854255451,37.56182526475249,
현대자동차여의도점,서울시 영등포구 국제금융로 20 1층  ,02-783-3391,서울특별시 영등포구 국제금융로 20 1층,서울특별시 영등포구 국제금융로 20 1층,126.92729316577324,37.524889274632166,
포스코사거리점,서울시 강남구 테헤란로 439  ,02-508-7522 ,서울특별시 강남구 테헤란로 439,서울특별시 강남구 테헤란로 439,127.05519276323682,37.50683363585929,
선릉로93길점,서울시 강남구 선릉로93길 6(역삼동) 1층  ,02-552-3177,서울특별시 강남구 선릉로93길 6(역삼동) 1층,서울특별시 강남구 선릉로93길 6(역삼동) 1층,127.04789708377687,37.50568353287672,
강남역먹자골목점,서울시 강남구 테헤란로1길 29 1층일부 및 2.3층  ,02-552-6311,서울특별시 강남구 테헤란로1길 29 1층일부 및 2.3층,서울특별시 강남구 테헤란로1길 29 1층일부 및 2.3층,127.02729987542467,37.50011286374968,
삼성로점,서울시 강남구 삼성로 551 1층&2층  ,02-552-9311 ,서울특별시 강남구 삼성로 551 1층&2층,서울특별시 강남구 삼성로 551 1층&2층,127.05414373264433,37.51070844147134,
서초우성아파트앞점,서울시 서초구 사임당로 171(서초동) EWR빌딩 2층  ,02-522-7158 ,서울특별시 서초구 사임당로 171(서초동) EWR빌딩 2층,서울특별시 서초구 사임당로 171(서초동) EWR빌딩 2층,127.02834881742253,37.492724362201386,
선릉로86길점,서울시 강남구 선릉로86길 11  ,02-2051-8875,서울특별시 강남구 선릉로86길 11,서울특별시 강남구 선릉로86길 11,127.05053071002908,37.503366851925236,
안국역점,서울시 종로구 율곡로 47 1&2층  ,02-722-3356 ,서울특별시 종로구 율곡로 47 1&2층,서울특별시 종로구 율곡로 47 1&2층,126.98459280354743,37.57633963636241,
뉴교보타워옆점,서울시 서초구 강남대로 449-3 알고코리아빌딩 1&2층  ,02-591-5177,서울특별시 서초구 강남대로 449-3 알고코리아빌딩 1&2층,서울특별시 서초구 강남대로 449-3 알고코리아빌딩 1&2층,127.02488049854803,37.50235690280889,
IFC MALL2호점,서울시 영등포구 국제금융로10 IFC B2층  ,02-6137-5054  ,서울특별시 영등포구 국제금융로10 IFC B2층,서울특별시 영등포구 국제금융로10 IFC B2층,126.92488326073102,37.52518509717874,
상암SBS미디어센터점,서울시 마포구 상암산로 82 SBS프리즘타워 1층  ,02-2039-9027 ,서울특별시 마포구 상암산로 82 SBS프리즘타워 1층,서울특별시 마포구 상암산로 82 SBS프리즘타워 1층,126.89276742656655,37.57971571494278,
마리오아울렛점,서울시 금천구 디지털로9길 23 마리오-2관 패션타워3층  ,02-857-5501  ,서울특별시 금천구 디지털로9길 23 마리오-2관 패션타워3층,서울특별시 금천구 디지털로9길 23 마리오-2관 패션타워3층,126.88647894360868,37.47871661084337,
삼성금융플라자점,서울 강남구 테헤란로 419 삼성금융플라자1층  ,02-554-7591,서울특별시 강남구 테헤란로 419 삼성금융플라자1층,서울특별시 강남구 테헤란로 419 삼성금융플라자1층,127.05218363534642,37.5058709281034,
명동나인트리호텔점,서울시 중구 명동10길 51 나인트리호텔 본관2층  ,02-771-9935 ,서울특별시 중구 명동10길 51 나인트리호텔 본관2층,서울특별시 중구 명동10길 51 나인트리호텔 본관2층,126.98602194268193,37.56159051675004,
이태원점,서울시 용산구 이태원로 189   ,02-794-3361,서울특별시 용산구 이태원로 189,서울특별시 용산구 이태원로 189,126.99491991410055,37.534849592004036,
뉴가로수길점,서울시 강남구 압구정로12길 6  ,02-544-7105,서울특별시 강남구 압구정로12길 6,서울특별시 강남구 압구정로12길 6,127.02231958804454,37.523531011449386,
서초뱅뱅사거리점,서울시 서초구 강남대로 267 2&3층  ,02-523-8841 ,서울특별시 서초구 강남대로 267 2&3층,서울특별시 서초구 강남대로 267 2&3층,127.03233809654866,37.48716412053679,
현대자동차성내점,서울시 강동구 천호대로 1096 1&2F  ,02-485-3361 ,서울특별시 강동구 천호대로 1096 1&2F,서울특별시 강동구 천호대로 1096 1&2F,127.13323687273288,37.53519801110498,
신림점,서울시 관악구 신림로 318 청암두산위브센티움1층  ,02-877-1194  ,서울특별시 관악구 신림로 318 청암두산위브센티움1층,서울특별시 관악구 신림로 318 청암두산위브센티움1층,126.93038685981176,37.48261596628313,
수원인계점,경기도 수원시 팔달구 권광로 195 학산빌딩1층   ,031-233-5631,경기도 수원시 팔달구 권광로 195 학산빌딩1층,경기도 수원시 팔달구 권광로 195 학산빌딩1층,127.03268250840564,37.26494422381663,
판교아브뉴프랑점,경기도 성남시 분당구 동판교로177번길 25  ,031-8016-8131,경기도 성남시 분당구 동판교로177번길 25,경기도 성남시 분당구 동판교로177번길 25,127.11356757435657,37.39731885895881,
일산원마운트점,경기도 고양시 일산서구 한류월드로 300 원마운트스포츠몰 1층  ,031-961-6520,경기도 고양시 일산서구 한류월드로 300 원마운트스포츠몰 1층,경기도 고양시 일산서구 한류월드로 300 원마운트스포츠몰 1층,126.75453100520795,37.664553206407625,
명동성당앞점,서울시 중구 명동길 73 1&2층  ,02-777-3363,서울특별시 중구 명동길 73 1&2층,서울특별시 중구 명동길 73 1&2층,126.98623647091166,37.56441066094545,
울산현대백화점점,울산광역시 남구 삼산로 261 현대백화점5층  ,052-228-0560,울산광역시 남구 삼산로 261 현대백화점5층,울산광역시 남구 삼산로 261 현대백화점5층,129.33581178208547,35.53956493136468,
대구중앙로점,대구광역시 중구 중앙대로 412-18  ,053-428-3370,대구광역시 중구 중앙대로 412-18,대구광역시 중구 중앙대로 412-18,128.5948443331882,35.86975712745384,
여의도교보증권카페점,서울시 영등포구 의사당대로 97 교보증권빌딩 2층  ,02-785-8845,서울특별시 영등포구 의사당대로 97 교보증권빌딩 2층,서울특별시 영등포구 의사당대로 97 교보증권빌딩 2층,126.92459182256933,37.52250893470141,
상봉엔터식스점,서울시 중랑구 망우로 353 프레미어스엠코 엔터식스 B동 2층  ,02-437-8891,서울특별시 중랑구 망우로 353 프레미어스엠코 엔터식스 B동 2층,서울특별시 중랑구 망우로 353 프레미어스엠코 엔터식스 B동 2층,127.09077157100491,37.59814580148578,
여의도렉싱턴호텔옆점,서울시 영등포구 국회대로74길19 동우국제빌딩1층  ,02-782-3358,서울특별시 영등포구 국회대로74길19 동우국제빌딩1층,서울특별시 영등포구 국회대로74길19 동우국제빌딩1층,126.92197105021577,37.52982336783099,
목동트라팰리스점,서울시 양천구 오목로 299 트라팰리스 이스턴에비뉴 1층  ,02-2643-7725,서울특별시 양천구 오목로 299 트라팰리스 이스턴에비뉴 1층,서울특별시 양천구 오목로 299 트라팰리스 이스턴에비뉴 1층,126.87035421197157,37.52608387956567,
압구정현대아파트점,서울시 강남구 압구정로29길65 지하1층  ,02-518-3350,서울특별시 강남구 압구정로29길65 지하1층,서울특별시 강남구 압구정로29길65 지하1층,127.02699463587388,37.53180123260152,
역삼역4번출구점,서울시 강남구 테헤란로143 고운빌딩1층  ,02-508-1137,서울특별시 강남구 테헤란로143 고운빌딩1층,서울특별시 강남구 테헤란로143 고운빌딩1층,127.03489974722345,37.50062443642905,
시청역7번출구점,서울시 중구 세종대로84 2층  ,02-754-8852,서울특별시 중구 세종대로84 2층,서울특별시 중구 세종대로84 2층,126.97718174618507,37.56366143120196,
부평문화의거리점,인천광역시 부평구 시장로29 1&2층  ,032-507-9901,인천광역시 부평구 시장로29 1&2층,인천광역시 부평구 시장로29 1&2층,126.72561150023559,37.49366151761278,
강남대로센터점,서울시 강남구 강남대로442 흥국화재빌딩 2층   ,02-565-3345,서울특별시 강남구 강남대로442 흥국화재빌딩 2층,서울특별시 강남구 강남대로442 흥국화재빌딩 2층,127.0260791858114,37.502068322416434,
구로G-ValleyMall,서울시 구로구 디지털로300 지밸리비즈플라자 2층  ,02-6344-3966,서울특별시 구로구 디지털로300 지밸리비즈플라자 2층,서울특별시 구로구 디지털로300 지밸리비즈플라자 2층,126.89654380641345,37.48492479083313,
내방역7번출구유중아트점,서울시 서초구 방배로178 유중아트센터1층  ,02-592-8861,서울특별시 서초구 방배로178 유중아트센터1층,서울특별시 서초구 방배로178 유중아트센터1층,126.99284242547238,37.489537980164314,
오리역애플플라자점,경기도 성남시 분당구 탄천상로151번길20 월드쇼핑 B동 1층  ,031-715-5638,경기도 성남시 분당구 탄천상로151번길20 월드쇼핑 B동 1층,경기도 성남시 분당구 탄천상로151번길20 월드쇼핑 B동 1층,127.10682356760809,37.34032625461315,
도심공항점,서울시 강남구 테헤란로87길22 도심공항터미널 지하1층  ,02-551-6456 ,서울특별시 강남구 테헤란로87길22 도심공항터미널 지하1층,서울특별시 강남구 테헤란로87길22 도심공항터미널 지하1층,127.05944754047711,37.509633695976525,
타임스퀘어점,서울시 영등포구 영중로15 타임스퀘어 1층  ,02-2635-8830,서울특별시 영등포구 영중로15 타임스퀘어 1층,서울특별시 영등포구 영중로15 타임스퀘어 1층,126.9037159955154,37.51723190515819,
차병원사거리점,서울시 강남구 봉은사로207 KJ타워1층  ,02-542-8813,서울특별시 강남구 봉은사로207 KJ타워1층,서울특별시 강남구 봉은사로207 KJ타워1층,127.03466559800215,37.50785056895872,
엔터식스한양대점,서울시 성동구 왕십리로241 서울숲더샵 판매시설201동 지하2층  ,02-6454-6216,서울특별시 성동구 왕십리로241 서울숲더샵 판매시설201동 지하2층,서울특별시 성동구 왕십리로241 서울숲더샵 판매시설201동 지하2층,127.04018876931498,37.55714258905799,
CBTL(커피빈)파르나스몰점,서울시 강남구 테헤란로521 파르나스몰 지하1층  ,02-538-2008 ,서울특별시 강남구 테헤란로521 파르나스몰 지하1층,서울특별시 강남구 테헤란로521 파르나스몰 지하1층,127.06080443144882,37.50919151306731,
광화문역1번출구점,서울시 종로구 새문안로5가길 7 1층 일부  ,02-723-3360,서울특별시 종로구 새문안로5가길 7 1층 일부,서울특별시 종로구 새문안로5가길 7 1층 일부,126.97404333953385,37.57276984912949,
현대프리미엄아울렛김포점,경기 김포시 고촌읍 전호리 654번지 현대프리미엄아울렛김포3층 618호  ,031-8048-2618,경기도 김포시 고촌읍 전호리 654번지 현대프리미엄아울렛김포3층 618호,경기도 김포시 고촌읍 전호리 654번지 현대프리미엄아울렛김포3층 618호,126.78523554973233,37.59723748915801,
여의도신영증권별관점,서울시 영등포구 국제금융로8길6 신영증권별관빌딩2층  ,02-782-1125,서울특별시 영등포구 국제금융로8길6 신영증권별관빌딩2층,서울특별시 영등포구 국제금융로8길6 신영증권별관빌딩2층,126.92970566400834,37.52180930701338,
이태원제일기획옆점,서울시 용산구 이태원로220(한남동) 1층  ,02-792-3560,서울특별시 용산구 이태원로220(한남동) 1층,서울특별시 용산구 이태원로220(한남동) 1층,126.99848389491302,37.5348136515052,
강남역GT타워옆점,서울시 서초구 서초대로73길12 세계빌딩1층   ,02-592-0053,서울특별시 서초구 서초대로73길12 세계빌딩1층,서울특별시 서초구 서초대로73길12 세계빌딩1층,127.02573869834697,37.498545463418075,
광교아브뉴프랑점,경기도 수원시 영통구 이의동 1332 광교아브뉴프랑 1층 A122&123호   ,031-216-9308,경기도 수원시 영통구 이의동 1332 광교아브뉴프랑 1층 A122&123호,경기도 수원시 영통구 이의동 1332 광교아브뉴프랑 1층 A122&123호,127.05047893352386,37.29156370274722,
광장동대한제지점,서울시 광진구 아차산로563(광장동) 대한제지빌딩 로비층  ,02-458-8166,서울특별시 광진구 아차산로563(광장동) 대한제지빌딩 로비층,서울특별시 광진구 아차산로563(광장동) 대한제지빌딩 로비층,127.10292692197024,37.54413920469445,
신천역점,서울시 송파구 올림픽로100 효창타워1층  ,02-417-8851,서울특별시 송파구 올림픽로100 효창타워1층,서울특별시 송파구 올림픽로100 효창타워1층,127.08169707261723,37.511422411516435,
포항영일대점,경상북도 포항시 북구 삼호로265번길1 NB-City복합시설1층104호  ,054-241-3372,경상북도 포항시 북구 삼호로265번길1 NB-City복합시설1층104호,경상북도 포항시 북구 삼호로265번길1 NB-City복합시설1층104호,129.37966928208678,36.061548855350814,
낙성대역점,서울시 관악구 남부순환로1909 1&2층  ,02-875-3364,서울특별시 관악구 남부순환로1909 1&2층,서울특별시 관악구 남부순환로1909 1&2층,126.96170779648138,37.47796304157316,
진주LH본사점,경상남도 진주시 충의로 19 LH진주사옥 홍보관1층  ,055-763-3520,경상남도 진주시 충의로 19 LH진주사옥 홍보관1층,경상남도 진주시 충의로 19 LH진주사옥 홍보관1층,128.14617300683597,35.1782407598531,
인천공항탑승동130gate앞점,인천광역시 중구 공항로272 인천국제공항탑승동3층 FB-C5-57  ,032-743-7213 ,인천광역시 중구 공항로272 인천국제공항탑승동3층 FB-C5-57,인천광역시 중구 공항로272 인천국제공항탑승동3층 FB-C5-57,126.42770226017664,37.458347032537475,
인천공항탑승동105gate앞점,인천광역시 중구 공항로272 인천국제공항탑승동3층 FB-C5-68  ,032-743-7223,인천광역시 중구 공항로272 인천국제공항탑승동3층 FB-C5-68,인천광역시 중구 공항로272 인천국제공항탑승동3층 FB-C5-68,126.42770226017664,37.458347032537475,
용산아이파크몰점,서울시 용산구 한강대로23길55 현대아이파크몰용산 서관6층  ,02-2012-0631,서울특별시 용산구 한강대로23길55 현대아이파크몰용산 서관6층,서울특별시 용산구 한강대로23길55 현대아이파크몰용산 서관6층,126.96473595989274,37.529771799790055,
경주미탐시티점,경상북도 경주시 엑스포로80(천군동)1층  ,054-777-5982,경상북도 경주시 엑스포로80(천군동)1층,경상북도 경주시 엑스포로80(천군동)1층,129.28985925919062,35.83455809337998,
석촌호수점,서울시 송파구 석촌호수로 222 제이타워 1층  ,02-415-1235,서울특별시 송파구 석촌호수로 222 제이타워 1층,서울특별시 송파구 석촌호수로 222 제이타워 1층,127.10155272485562,37.507064168713875,
오목교역사거리점,서울시 양천구 오목로 350 목동썬텍씨티빌딩 1층&2층  ,02-2653-8577 ,서울특별시 양천구 오목로 350 목동썬텍씨티빌딩 1층&2층,서울특별시 양천구 오목로 350 목동썬텍씨티빌딩 1층&2층,126.87627404286705,37.52415307580944,
을지로입구역점,서울시 중구 남대문로10길 6 1&2층   ,02-752-3348,서울특별시 중구 남대문로10길 6 1&2층,서울특별시 중구 남대문로10길 6 1&2층,126.983247783584,37.566879003948074,
명동M플라자점,서울시 중구 명동8길 27(명동2가)  ,02-752-0888,서울특별시 중구 명동8길 27(명동2가),서울특별시 중구 명동8길 27(명동2가),126.98517288713187,37.562527449666774,
송도홈플러스점,인천광역시 연수구 송도국제대로 165(송도동) 홈플러스송도점1층  ,032-822-5905,인천광역시 연수구 송도국제대로 165(송도동) 홈플러스송도점1층,인천광역시 연수구 송도국제대로 165(송도동) 홈플러스송도점1층,126.65637172484882,37.38022326483571,
올림픽공원북2문앞점,서울시 강동구 강동대로193 1층  ,02-471-2372,서울특별시 강동구 강동대로193 1층,서울특별시 강동구 강동대로193 1층,127.12801413284105,37.52456296658437,
고대참살이길점,서울시 성북구 인촌로24길 25 (안암동5가) 2층&3층  ,02-923-7735,서울특별시 성북구 인촌로24길 25 (안암동5가) 2층&3층,서울특별시 성북구 인촌로24길 25 (안암동5가) 2층&3층,127.029549939181,37.58504955293983,
예술의전당앞점,서울특별시 서초구 반포대로4(서초동) 2층& 3층  ,02-583-8856,서울특별시 서초구 반포대로4(서초동) 2층& 3층,서울특별시 서초구 반포대로4(서초동) 2층& 3층,127.01318294911316,37.48122115436203,
삼성역글라스타워뒷점,서울시 강남구 영동대로85길 9 (대치동) 서전빌딩1층  ,02-552-3363,서울특별시 강남구 영동대로85길 9 (대치동) 서전빌딩1층,서울특별시 강남구 영동대로85길 9 (대치동) 서전빌딩1층,127.06289508333288,37.507091077347276,
범계역로데오점,경기도 안양시 동안구 평촌대로 223번길 41(호계동 1045-9) 2층  ,031-476-9082,경기도 안양시 동안구 평촌대로 223번길 41(호계동 1045-9) 2층,경기도 안양시 동안구 평촌대로 223번길 41(호계동 1045-9) 2층,126.95350881528535,37.39048945684145,
포스코옆삼성로86길점,서울특별시 강남구 삼성로86길 11 거봉빌딩 1층  ,02-569-7501,서울특별시 강남구 삼성로86길 11 거봉빌딩 1층,서울특별시 강남구 삼성로86길 11 거봉빌딩 1층,127.05829097115155,37.5058951023931,
상암한국지역정보개발원점,서울시 마포구 성암로301 KLID한국지역정보개발원 1층  ,02-376-9162,서울특별시 마포구 성암로301 KLID한국지역정보개발원 1층,서울특별시 마포구 성암로301 KLID한국지역정보개발원 1층,126.88794055389558,37.582468270974935,
판교알파돔시티점,경기도 성남시 분당구 판교역로145(백현동) 판교알파돔 C2-3블럭 1층  ,031-8017-8556,경기도 성남시 분당구 판교역로145(백현동) 판교알파돔 C2-3블럭 1층,경기도 성남시 분당구 판교역로145(백현동) 판교알파돔 C2-3블럭 1층,127.10834577750606,37.39440444884173,
대치동나무병원점,서울특별시 강남구 영동대로 225 나무병원1층 (대치동994-5)  ,02-562-9605,서울특별시 강남구 영동대로 225 나무병원1층 (대치동994-5),서울특별시 강남구 영동대로 225 나무병원1층 (대치동994-5),127.0676382298104,37.49925871906443,
분당정자점,경기도 성남시 분당구 정자일로 227(정자동) 백궁지엔느주차전용빌딩 1층  ,031-786-1906,경기도 성남시 분당구 정자일로 227(정자동) 백궁지엔느주차전용빌딩 1층,경기도 성남시 분당구 정자일로 227(정자동) 백궁지엔느주차전용빌딩 1층,127.1056022078306,37.370710008363,
신논현역점,서울특별시 강남구 봉은사로108 글라스톤빌딩1층  ,02-569-9061,서울특별시 강남구 봉은사로108 글라스톤빌딩1층,서울특별시 강남구 봉은사로108 글라스톤빌딩1층,127.02558242013527,37.50453718637756,
강서그랜드아이파크점,서울시 강서구 화곡6동 1095번지 1층  ,02-2699-7462,서울특별시 강서구 화곡6동 1095번지 1층,서울특별시 강서구 화곡6동 1095번지 1층,126.8512914579077,37.55483932835076,
상암DDMC점,서울시 마포구 상암동 1610번지 DDMC 지하 1층  ,02-375-0994,서울특별시 마포구 상암동 1610번지 DDMC 지하 1층,서울특별시 마포구 상암동 1610번지 DDMC 지하 1층,126.892905085128,37.578454448840986,
연대동문회관점,서울시 서대문구 대신동 50-5 1층&2층(B동)  ,02-362-8301,서울특별시 서대문구 대신동 50-5 1층&2층(B동),서울특별시 서대문구 대신동 50-5 1층&2층(B동),126.94332836011665,37.56302834733292,
평촌점,경기도 안양시 동안구 시민대로327번길 6& W 에이스타워 1층  ,031-426-9065,경기도 안양시 동안구 시민대로327번길 6& W 에이스타워 1층,경기도 안양시 동안구 시민대로327번길 6& W 에이스타워 1층,126.96696676145461,37.39664796468662,
마두역점,경기도 고양시 일산동구 중앙로 1193 마두법조빌딩 1층  ,031-932-7018,경기도 고양시 일산동구 중앙로 1193 마두법조빌딩 1층,경기도 고양시 일산동구 중앙로 1193 마두법조빌딩 1층,126.77662103293319,37.653091592832276,
수원역점,경기도 수원시 팔달구 매산로 11&  2층  ,031-248-9593,경기도 수원시 팔달구 매산로 11& 2층,경기도 수원시 팔달구 매산로 11& 2층,127.00272832999363,37.26744458925211,
부천역점,경기도 부천시 부천로4 2층  ,032-668-7890,경기도 부천시 부천로4 2층,경기도 부천시 부천로4 2층,126.78348963883936,37.48447437414585,
장안점,서울시 동대문구 장안동 372-1& 1층 일부 및 2층 전체  ,02-2249-9826,서울특별시 동대문구 장안동 372-1& 1층 일부 및 2층 전체,서울특별시 동대문구 장안동 372-1& 1층 일부 및 2층 전체,127.07053292044209,37.57094063237461,
서초역1번출구점,서울시 서초구 서초대로 250 스타갤러리 브릿지 1층 101호  ,02-598-7741,서울특별시 서초구 서초대로 250 스타갤러리 브릿지 1층 101호,서울특별시 서초구 서초대로 250 스타갤러리 브릿지 1층 101호,127.00917058749879,37.4919795714819,
수원망포역점,경기도 수원시 영통구 영통로 214번길 8 1층  ,031-273-8751,경기도 수원시 영통구 영통로 214번길 8 1층,경기도 수원시 영통구 영통로 214번길 8 1층,127.05757189901813,37.24622006688553,
대치사거리점,서울시 강남구 삼성로 352 창진빌딩 1층 및 2층  ,02-569-9751,서울특별시 강남구 삼성로 352 창진빌딩 1층 및 2층,서울특별시 강남구 삼성로 352 창진빌딩 1층 및 2층,127.05906910015726,37.503038528995155,
매헌역점,서울시 서초구 동산로 1  1층  ,02-2058-0921,서울특별시 서초구 동산로 1 1층,서울특별시 서초구 동산로 1 1층,127.04013023379659,37.46900639099873,
문래동점,서울시 영등포구 문래동6가 5번지 1층  ,02-2069-3157,서울특별시 영등포구 문래동6가 5번지 1층,서울특별시 영등포구 문래동6가 5번지 1층,126.88905263466421,37.51965174942964,
역삼동태광타워점,서울시 강남구 역삼동 718-20  태광타워 1층  ,02-569-9867,서울특별시 강남구 역삼동 718-20 태광타워 1층,서울특별시 강남구 역삼동 718-20 태광타워 1층,127.03988726999702,37.50105534053121,
수지동천점,경기 용인시 수지구 손곡로 95 송란빌딩 1층  ,031-896-9044,경기도 용인시 수지구 손곡로 95 송란빌딩 1층,경기도 용인시 수지구 손곡로 95 송란빌딩 1층,127.09180925147015,37.33596886046969,
파주운정홈플러스점,경기도 파주시 청암로 17번길 17 1층  ,031-949-1408,경기도 파주시 청암로 17번길 17 1층,경기도 파주시 청암로 17번길 17 1층,126.73676774905582,37.72957420248256,
잠원논현역점,서울시 서초구 신반포로47길 5 건물전체 1~3층  ,02-541-7404,서울특별시 서초구 신반포로47길 5 건물전체 1~3층,서울특별시 서초구 신반포로47길 5 건물전체 1~3층,127.01945425689937,37.510953509656176,
천호역점,서울시 강동구 올림픽로 659 쌍용플래티넘리버 1층  ,02-488-5912,서울특별시 강동구 올림픽로 659 쌍용플래티넘리버 1층,서울특별시 강동구 올림픽로 659 쌍용플래티넘리버 1층,127.12345848576567,37.54032631738515,
강남대점,경기도 용인시 기흥구 강남로 3 강남앤플러스 1층  ,031-693-6312,경기도 용인시 기흥구 강남로 3 강남앤플러스 1층,경기도 용인시 기흥구 강남로 3 강남앤플러스 1층,127.12612924714627,37.27105368049733,
홍대역8번출구점,서울시 마포구 양화로18안길 7 2층  ,02-338-9463,서울특별시 마포구 양화로18안길 7 2층,서울특별시 마포구 양화로18안길 7 2층,126.92508917685578,37.556828335815446,
산본역점,경기도 군포시 광정로58 1층 104호 및 2층  ,031-399-8812,경기도 군포시 광정로58 1층 104호 및 2층,경기도 군포시 광정로58 1층 104호 및 2층,126.93098702637477,37.35850107579219,
부천상동점,경기도 부천시 길주로 111 센타플라자 1층  ,032-329-9471,경기도 부천시 길주로 111 센타플라자 1층,경기도 부천시 길주로 111 센타플라자 1층,126.75488036244755,37.50633091706511,
안양1번가점,경기도 안양시 만안구 안양로304번길 12 세진빌딩 2층  ,031-468-9096,경기도 안양시 만안구 안양로304번길 12 세진빌딩 2층,경기도 안양시 만안구 안양로304번길 12 세진빌딩 2층,126.92190303413877,37.39954609842195,
원주AK플라자점,강원도 원주시 봉화로1 AK플라자원주점 1층  ,033-748-0631,강원도 원주시 봉화로1 AK플라자원주점 1층,강원도 원주시 봉화로1 AK플라자원주점 1층,127.92763488920397,37.3456756060548,
송파파크하비오B1점,서울특별시 송파구 송파대로 111& 송파 파크하비오 하비오길 극장로 203동 지하1층  ,02-449-6797,서울특별시 송파구 송파대로 111& 송파 파크하비오 하비오길 극장로 203동 지하1층,서울특별시 송파구 송파대로 111& 송파 파크하비오 하비오길 극장로 203동 지하1층,127.12490752976588,37.479669201734104,
화정중앙공원점,경기도 고양시 덕양구 화신로260번길 26 동민프라자 1층 103~107호  ,031-979-9402,경기도 고양시 덕양구 화신로260번길 26 동민프라자 1층 103~107호,경기도 고양시 덕양구 화신로260번길 26 동민프라자 1층 103~107호,126.83300080966391,37.63174147552936,
강남역12번출구점,서울특별시 강남구 테헤란로 111 2층  ,02-569-5838,서울특별시 강남구 테헤란로 111 2층,서울특별시 강남구 테헤란로 111 2층,127.02927846456885,37.49887801148192,
서초부띠크모나코점,서울특별시 서초구 서초대로 397 부띠크모나코 1층  ,02-537-4662,서울특별시 서초구 서초대로 397 부띠크모나코 1층,서울특별시 서초구 서초대로 397 부띠크모나코 1층,127.02451699192295,37.49743748539588,
송파파크하비오점,서울특별시 송파구 송파대로 111 송파파크하비오 205동 1층 110-113  ,02-449-6881,서울특별시 송파구 송파대로 111 송파파크하비오 205동 1층 110-113,서울특별시 송파구 송파대로 111 송파파크하비오 205동 1층 110-113,127.1226721193443,37.48159970204132,
문정역엠스테이트점,서울 송파구 문정동 643-1번지 엠스테이트 B동 지하1층  ,02-6177-9080,서울특별시 송파구 문정동 643-1번지 엠스테이트 B동 지하1층,서울특별시 송파구 문정동 643-1번지 엠스테이트 B동 지하1층,127.12103890292498,37.485430670948155,
상봉역점,서울특별시 중랑구 망우로 291 1층  ,02-493-8902,서울특별시 중랑구 망우로 291 1층,서울특별시 중랑구 망우로 291 1층,127.08479067911239,37.59644737675932,
강동경희대병원앞점,서울특별시 강동구 동남로 885 양지빌딩 1층  ,02-481-9938,서울특별시 강동구 동남로 885 양지빌딩 1층,서울특별시 강동구 동남로 885 양지빌딩 1층,127.15596966114839,37.55265855710312,
노원역점,서울시 노원구 노해로 490& 길빌딩 2층  ,02-952-9577,서울특별시 노원구 노해로 490& 길빌딩 2층,서울특별시 노원구 노해로 490& 길빌딩 2층,127.06241851349844,37.65440378940002,
합정역점,서울시 마포구 독막로 13& 2층  ,02-338-9178,서울특별시 마포구 독막로 13& 2층,서울특별시 마포구 독막로 13& 2층,126.91507092205913,37.54882069427687,
종각역점,서울시 종로구 종로 70 2층  ,02-739-6268,서울특별시 종로구 종로 70 2층,서울특별시 종로구 종로 70 2층,126.98517142446154,37.569906606639826,
평택소사점,경기도 평택시 평남로 862& 로이드빌딩 1층  ,031-692-2405,경기도 평택시 평남로 862& 로이드빌딩 1층,경기도 평택시 평남로 862& 로이드빌딩 1층,127.1115028857034,37.00046164453251,
몽촌토성역점,서울시 송파구 방이동 44-2& 장은빌딩 1층  ,02-2141-0407,서울특별시 송파구 방이동 44-2& 장은빌딩 1층,서울특별시 송파구 방이동 44-2& 장은빌딩 1층,127.11276448745069,37.51692899986555,
도곡동지오빌딩점,서울특별시 강남구 도곡동 543-1& 지오빌딩 B1층  ,02-2058-3027,서울특별시 강남구 도곡동 543-1& 지오빌딩 B1층,서울특별시 강남구 도곡동 543-1& 지오빌딩 B1층,127.04166922934648,37.492269911315496,
강북구청앞점,서울특별시 강북구 한천로 139길 25& 1층 일부 및 2층 (수유동 191-70)  ,02-994-8878,서울특별시 강북구 한천로 139길 25& 1층 일부 및 2층 (수유동 191-70),서울특별시 강북구 한천로 139길 25& 1층 일부 및 2층 (수유동 191-70),127.02573045628266,37.639091764936474,
송도트리플스트리트점, 인천 연수구 송도과학로 16번길 33-4 D동 119호&207호  ,032-310-9644,인천광역시 연수구 송도과학로 16번길 33-4 D동 119호&207호,인천광역시 연수구 송도과학로 16번길 33-4 D동 119호&207호,126.66283713493264,37.37865607821688,
구의삼성쉐르빌점,서울특별시 광진구 구의강변로 106 삼성쉐르빌 1층  ,02-2201-8953,서울특별시 광진구 구의강변로 106 삼성쉐르빌 1층,서울특별시 광진구 구의강변로 106 삼성쉐르빌 1층,127.09495532761696,37.53988415689764,
여의도SK증권빌딩점,서울특별시 영등포구 국제금융로8길31 여의도SK증권빌딩점 1층  ,02-6484-5150,서울특별시 영등포구 국제금융로8길31 여의도SK증권빌딩점 1층,서울특별시 영등포구 국제금융로8길31 여의도SK증권빌딩점 1층,126.9280673607387,37.519754034290834,
현대시티몰가든파이브점,서울특별시 송파구 충민로 66 가든파이브 라이프동 테크노관 1층  ,02-2673-2110,서울특별시 송파구 충민로 66 가든파이브 라이프동 테크노관 1층,서울특별시 송파구 충민로 66 가든파이브 라이프동 테크노관 1층,127.12496063833022,37.47761484544724,
합정푸르지오점,서울특별시 마포구 월드컵로 3길 14& 푸르지오 2차 1층  ,02-338-7684,서울특별시 마포구 월드컵로 3길 14& 푸르지오 2차 1층,서울특별시 마포구 월드컵로 3길 14& 푸르지오 2차 1층,126.91165080895992,37.55100761048003,
신논현역2번출구점,서울시 서초구 강남대로 475 2층  ,02-541-9650,서울특별시 서초구 강남대로 475 2층,서울특별시 서초구 강남대로 475 2층,127.02388603933886,37.50474477281571,
위례2차아이파크점,서울시 송파구 위례광장로 230 위례2차 아이파크 B동 1층  ,02-449-9703,서울특별시 송파구 위례광장로 230 위례2차 아이파크 B동 1층,서울특별시 송파구 위례광장로 230 위례2차 아이파크 B동 1층,127.14376374434386,37.47862061346624,
혜화역1번출구점,서울특별시 종로구 대학로 128 2층  ,02-766-7937,서울특별시 종로구 대학로 128 2층,서울특별시 종로구 대학로 128 2층,127.0021510774632,37.582701639563744,
한성대입구역점,서울특별시 성북구 삼선교로 12 1층  ,02-766-7951,서울특별시 성북구 삼선교로 12 1층,서울특별시 성북구 삼선교로 12 1층,127.00713298593445,37.5875848262521,
한티역디마크빌딩점,서울특별시 강남구 도곡로 408 디마크빌딩 1층  ,02-2052-6590,서울특별시 강남구 도곡로 408 디마크빌딩 1층,서울특별시 강남구 도곡로 408 디마크빌딩 1층,127.05523048327824,37.49662522305912,
논현201-5번지점,서울특별시 강남구  강남대로112길 20 1층& 2층  ,02-541-9563,서울특별시 강남구 강남대로112길 20 1층& 2층,서울특별시 강남구 강남대로112길 20 1층& 2층,127.02604645365514,37.50551017073251,
부산수영역점,부산광역시 수영구 수영로 667 1층  ,051-759-9046,부산광역시 수영구 수영로 667 1층,부산광역시 수영구 수영로 667 1층,129.11448295972292,35.165358045821066,
부산정관점,부산광역시 기장군 정관로 563 1층&2층  ,051-728-7435,부산광역시 기장군 정관로 563 1층&2층,부산광역시 기장군 정관로 563 1층&2층,129.17562783578785,35.32191829999043,
수원송죽DT점,경기도 수원시 장안구 경수대로 989  ,031-248-6086,경기도 수원시 장안구 경수대로 989,경기도 수원시 장안구 경수대로 989,127.00292144415504,37.30508097426536,
동교동삼거리점,서울특별시 마포구 양화로 196(동교동)  ,02-336-9198 ,서울특별시 마포구 양화로 196(동교동),서울특별시 마포구 양화로 196(동교동),126.92652498219469,37.558378953092294,
성남신흥점,경기도 성남시 수정구 수정로 190 (신흥동)  ,031-759-6675,경기도 성남시 수정구 수정로 190 (신흥동),경기도 성남시 수정구 수정로 190 (신흥동),127.14097298403352,37.44343047210459,
응암동점 ,서울시 은평구 은평로 121(응암동)& 메디컬빌딩  ,02-389-6283,서울특별시 은평구 은평로 121(응암동)& 메디컬빌딩,서울특별시 은평구 은평로 121(응암동)& 메디컬빌딩,126.92109334221078,37.60044284657785,
서수원이마트점,경기도 수원시 권선구 수인로 291(구운동)& 이마트 서수원점 1층  ,031-278-6593,경기도 수원시 권선구 수인로 291(구운동)& 이마트 서수원점 1층,경기도 수원시 권선구 수인로 291(구운동)& 이마트 서수원점 1층,126.97015148597713,37.28263240009297,
양천향교역점,서울특별시 강서구 강서로 457(마곡동)  ,02-3665-9506,서울특별시 강서구 강서로 457(마곡동),서울특별시 강서구 강서로 457(마곡동),126.84042521474909,37.56624977147554,
성균관대 자연과학캠퍼스점,경기 수원시 장안구 서부로 2066& 성균관대 자연과학 캠퍼스 N센터 1층  ,031-278-7640,경기도 수원시 장안구 서부로 2066& 성균관대 자연과학 캠퍼스 N센터 1층,경기도 수원시 장안구 서부로 2066& 성균관대 자연과학 캠퍼스 N센터 1층,126.97420641887531,37.29597773013051,
마곡마커스빌딩점 ,서울특별시 강서구 마곡동로 55 마커스빌딩 1층  ,02-6905-3030,서울특별시 강서구 마곡동로 55 마커스빌딩 1층,서울특별시 강서구 마곡동로 55 마커스빌딩 1층,126.83303641322415,37.56006773429854,
방이역4번출구점,서울 송파구 방이동 206-11  ,02-420-0386,서울특별시 송파구 방이동 206-11,서울특별시 송파구 방이동 206-11,127.1257826378638,37.50935643414472,
IFC MALL 3호점,서울시 영등포구 국제금융로10 IFC Mall L2(2층)  ,02-6137-5056,서울특별시 영등포구 국제금융로10 IFC Mall L2(2층),서울특별시 영등포구 국제금융로10 IFC Mall L2(2층),126.92488326073102,37.52518509717874,
동탄능동DT점,경기도 화성시 능동 453-4&453-8&454-1 소재 건물(1~3층)  ,031-267-4182,경기도 화성시 능동 453-4&453-8&454-1 소재 건물(1~3층),경기도 화성시 능동 453-4&453-8&454-1 소재 건물(1~3층),127.05642985909654,37.21104372422393,
수원인계DT점,경기도 수원시 팔달구 인계로79 (인계동)  ,031-898-8818,경기도 수원시 팔달구 인계로79 (인계동),경기도 수원시 팔달구 인계로79 (인계동),127.02647206248557,37.268865306723725,
인천공항 제2여객터미널 입구점,인천광역시 중구 운서동 2868 인천공항 제2터미널 1층 연번(23-124)  ,032-743-2894,인천광역시 중구 운서동 2868 인천공항 제2터미널 1층 연번(23-124),인천광역시 중구 운서동 2868 인천공항 제2터미널 1층 연번(23-124),126.42770226017664,37.458347032537475,
부산서면서전로점,부산광역시 부산진구 서전로 12& 1층  ,051-819-8708,부산광역시 부산진구 서전로 12& 1층,부산광역시 부산진구 서전로 12& 1층,129.06086392466298,35.157523172042595,
분당차병원본관앞점,경기도 성남시 분당구 야탑로64 DS타워 1층  ,031-8017-8243,경기도 성남시 분당구 야탑로64 DS타워 1층,경기도 성남시 분당구 야탑로64 DS타워 1층,127.12597695534099,37.40950610439068,
신용산역래미안점,서울시 용산구 한강대로95  ,02-2074-1049,서울특별시 용산구 한강대로95,서울특별시 용산구 한강대로95,126.96665967207724,37.52881729682869,
